STARLINK-32344          
1 61719U 24196N   24318.91667824 -.01071002  00000+0 -50749-2 0  9996
2 61719  53.1524 182.5233 0000581  63.5178   8.0138 15.84880500  3466
STARLINK-32322          
1 61720U 24196P   24318.91667824 -.01081718  00000+0 -51318-2 0  9996
2 61720  53.1520 182.5116 0000475  77.5106 359.3621 15.84883984  3460
STARLINK-32469          
1 61721U 24196Q   24318.91667824 -.01075264  00000+0 -50982-2 0  9992
2 61721  53.1522 182.5172 0000736  71.7287   2.6294 15.84877085  3213
STARLINK-32438          
1 61722U 24196R   24318.91667824 -.01100836  00000+0 -52357-2 0  9995
2 61722  53.1519 182.5053 0000513  86.1372 353.8929 15.84880047  3461
STARLINK-32540          
1 61723U 24196S   24312.16667824 -.00540848  11164-3 -10070-2 0  9990
2 61723  53.1555 216.8704 0000911 121.4312 142.4723 16.00262835  2220
STARLINK-32528          
1 61724U 24196T   24318.91667824 -.01150468  00000+0 -53934-2 0  9995
2 61724  53.1518 182.4979 0000676  58.5672  24.8908 15.84868741  3159
STARLINK-32573          
1 61725U 24196U   24318.91667824 -.01179526  00000+0 -55478-2 0  9997
2 61725  53.1519 182.4866 0000525  82.1854   6.7666 15.84863407  3462
STARLINK-32478          
1 61726U 24196V   24318.91667824 -.01178760  00000+0 -55456-2 0  9993
2 61726  53.1514 182.4806 0000701  65.0901  26.4678 15.84854903  3318
STARLINK-32511          
1 61727U 24196W   24318.91667824 -.01185916  00000+0 -55820-2 0  9990
2 61727  53.1515 182.4706 0000652  65.8106  30.5499 15.84860325  3467
STARLINK-32475          
1 61728U 24196X   24318.91667824 -.01189728  00000+0 -56045-2 0  9996
2 61728  53.1515 182.4646 0000855  69.3452  29.8463 15.84849613  3312
STARLINK-32442          
1 61729U 24196Y   24318.91667824 -.01182169  00000+0 -55642-2 0  9991
2 61729  53.1519 182.4758 0000920  64.5315  29.6361 15.84850447  3311
COSMOS 2579             
1 61730U 24197A   24318.82444343  .00008658  00000+0  38856-3 0  9999
2 61730  97.5593 227.2426 0007207 211.4776 148.6029 15.21412099  2079
SL-4 R/B                
1 61731U 24197B   24318.79579742  .00087819  00000+0  10620-2 0  9992
2 61731  97.5622 227.7881 0109657  20.9784 339.5915 15.53352620  2081
DSN-3 (KIRAMEKI-3)      
1 61733U 24198A   24316.52688250 -.00000128  00000+0  00000+0 0  9996
2 61733   0.0172 304.5807 0044437 242.0474 196.6961  1.00902665    78
H-3 R/B                 
1 61734U 24198B   24318.49117862  .00096479  66636-6  13415-2 0  9995
2 61734  24.4304 183.8257 7271182 184.9471 158.6874  2.34460750   208
DRAGON CRS-31           
1 61791U 24200A   24318.40073414  .00018836  00000+0  32023-3 0  9991
2 61791  51.6381 296.1395 0008363 170.0219 190.0938 15.51437269  1133
2024-201A               
1 61792U 24201A   24318.80099964  .00902559  25133-5  17007-2 0  9993
2 61792  97.9338 223.7893 0269545 240.9135 116.4886 15.59431906  1294
2024-201B               
1 61793U 24201B   24318.81923846  .00090962  00000+0  12605-1 0  9994
2 61793  97.9236 222.7689 0008074 285.6990  74.3330 14.77451910  1233
2024-201C               
1 61794U 24201C   24318.70989131  .01438826  23719-5  17686-2 0  9991
2 61794  97.9083 223.7402 0255766 194.8616 164.5030 15.67761125  1271
STARLINK-32362          
1 61845U 24202A   24318.91667824 -.00954397  27776-3 -27585-2 0  9995
2 61845  43.0041  91.6824 0001641 290.2387 176.8877 15.92083305  2171
STARLINK-32472          
1 61846U 24202B   24318.91667824 -.00960820  28134-3 -27686-2 0  9995
2 61846  43.0038  91.6800 0001879 287.8649 180.1833 15.92142155  2177
STARLINK-32352          
1 61847U 24202C   24318.91667824 -.00959657  28091-3 -27553-2 0  9997
2 61847  43.0040  91.6771 0001858 289.6974 179.4345 15.92211057  2173
STARLINK-32427          
1 61848U 24202D   24318.91667824 -.00966556  28488-3 -27607-2 0  9994
2 61848  43.0035  91.6738 0002171 282.7875 187.7281 15.92310691  2179
STARLINK-32346          
1 61849U 24202E   24318.91667824 -.00966316  28510-3 -27422-2 0  9990
2 61849  43.0041  91.6683 0001818 285.4275 187.0913 15.92435712  2073
STARLINK-32330          
1 61850U 24202F   24318.91667824 -.00970657  28770-3 -27411-2 0  9991
2 61850  43.0036  91.6652 0001997 289.5717 184.2659 15.92529040  2174
STARLINK-32379          
1 61851U 24202G   24318.91667824 -.00966257  28485-3 -27531-2 0  9999
2 61851  43.0039  91.6714 0002022 287.9781 183.3674 15.92358009  2082
STARLINK-32433          
1 61852U 24202H   24318.91667824 -.00972874  28915-3 -27347-2 0  9995
2 61852  43.0037  91.6619 0001959 289.4447 185.6703 15.92617639  2174
STARLINK-32394          
1 61853U 24202J   24318.91667824 -.00975669  29094-3 -27288-2 0  9994
2 61853  43.0038  91.6581 0002013 288.6304 187.8345 15.92713693  2172
STARLINK-32486          
1 61854U 24202K   24318.91667824 -.00976728  29173-3 -27212-2 0  9997
2 61854  43.0035  91.6555 0001832 287.4171 190.1690 15.92788230  2177
STARLINK-32391          
1 61855U 24202L   24318.91667824 -.00978324  29283-3 -27140-2 0  9994
2 61855  43.0035  91.6521 0002107 284.9176 193.8453 15.92868894  2176
STARLINK-32483          
1 61856U 24202M   24318.91667824 -.00976958  29226-3 -27021-2 0  9991
2 61856  43.0037  91.6500 0001646 282.6936 197.0171 15.92927219  2172
STARLINK-32451          
1 61857U 24202N   24318.91667824 -.00984815  29714-3 -26956-2 0  9991
2 61857  43.0038  91.6426 0002043 287.1344 195.2850 15.93124818  1916
STARLINK-32556          
1 61858U 24202P   24318.91667824 -.00978409  29335-3 -26911-2 0  9994
2 61858  43.0032  91.6464 0002151 288.2646 192.8774 15.93031248  2171
STARLINK-32466          
1 61859U 24202Q   24318.91667824 -.00982216  29597-3 -26755-2 0  9992
2 61859  43.0034  91.6394 0002099 288.4278 195.3000 15.93215832  2173
STARLINK-32316          
1 61860U 24202R   24318.91667824 -.00986143  29885-3 -26519-2 0  9995
2 61860  43.0035  91.6307 0001985 289.2777 197.9523 15.93459785  2104
STARLINK-32415          
1 61861U 24202S   24318.91667824 -.00985439  29823-3 -26613-2 0  9990
2 61861  43.0038  91.6336 0002005 286.4228 199.6482 15.93379297  1857
STARLINK-32393          
1 61862U 24202T   24318.91667824 -.00982292  29622-3 -26656-2 0  9999
2 61862  43.0038  91.6365 0001999 287.7158 197.0895 15.93287819  2014
STARLINK-32324          
1 61863U 24202U   24318.91667824 -.00986699  29949-3 -26379-2 0  9999
2 61863  43.0029  91.6270 0001735 290.0170 198.7037 15.93571202  2174
STARLINK-32318          
1 61864U 24202V   24318.91667824 -.00985998  29957-3 -26144-2 0  9990
2 61864  43.0028  91.6213 0001672 289.3243 201.7061 15.93726401  2178
STARLINK-32401          
1 61865U 24202W   24318.91667824 -.00989179  30165-3 -26079-2 0  9996
2 61865  43.0034  91.6179 0002003 286.8887 205.5505 15.93833156  2173
STARLINK-32588          
1 61866U 24202X   24318.91667824 -.00987714  30034-3 -26268-2 0  9995
2 61866  43.0030  91.6240 0002137 286.7025 203.3457 15.93668693  2174
STARLINK-32569          
1 61867U 24202Y   24318.91667824 -.00992988  30402-3 -26065-2 0  9999
2 61867  43.0029  91.6150 0001951 282.9893 210.6013 15.93916242  2172
2024-203A               
1 61869U 24203A   24318.42777839  .00017035  00000+0  95154-3 0  9998
2 61869  97.4928  23.1556 0016285 197.3307 162.7370 15.13469525   642
2024-203B               
1 61870U 24203B   24314.61869447  .00069573  00000+0  38622-2 0  9994
2 61870  97.4945  19.4128 0015648 214.2053 286.2833 15.13342822    67
2024-203C               
1 61871U 24203C   24314.61869431 -.00007827  00000+0 -43090-3 0  9990
2 61871  97.4994  19.4083 0016054 220.6381 280.4618 15.13672628    66
2024-203D               
1 61872U 24203D   24318.42670276  .00014663  00000+0  81114-3 0  9994
2 61872  97.4985  23.1592 0016524 206.1684 153.8714 15.13847026   641
2024-203E               
1 61873U 24203E   24318.68177085  .00014963  00000+0  66014-3 0  9998
2 61873  97.3859  23.2318 0102903 126.5077 234.5689 15.17120060   684
2024-205A               
1 61894U 24205A   24318.78948015  .00021062  00000+0  11470-2 0  9996
2 61894  97.4771  30.9243 0013423 272.9268  87.0428 15.14367944   390
2024-205B               
1 61895U 24205B   24318.12893326  .00014786  00000+0  81174-3 0  9993
2 61895  97.4755  30.2746 0013489 272.3159  87.6528 15.14157444   264
2024-205C               
1 61896U 24205C   24318.12873089  .00021042  00000+0  11473-2 0  9995
2 61896  97.4760  30.2753 0013220 275.6482  84.3242 15.14327078   266
2024-205D               
1 61897U 24205D   24316.70216911 -.00000066  00000+0  00000+0 0  9998
2 61897  97.4731  28.8697 0013339 285.9160 222.2560 15.14306380    48
2024-205E               
1 61898U 24205E   24318.12863575  .00023625  00000+0  12844-2 0  9998
2 61898  97.4759  30.2758 0013752 276.3015  83.6650 15.14400018   262
2024-205F               
1 61899U 24205F   24318.12859424  .00021670  00000+0  11778-2 0  9990
2 61899  97.4734  30.2748 0013121 278.1064  81.8680 15.14435412   268
2024-205G               
1 61900U 24205G   24318.12857104  .00015752  00000+0  85764-3 0  9997
2 61900  97.4736  30.2748 0012960 278.5310  81.4453 15.14443340   264
2024-205H               
1 61901U 24205H   24316.69769109  .00424227  00000+0  21783-1 0  9995
2 61901  97.4724  28.8624 0012996 287.3988 196.4856 15.14400834    47
2024-205J               
1 61902U 24205J   24318.12852514  .00021215  00000+0  11514-2 0  9991
2 61902  97.4782  30.2757 0013411 278.4363  81.5349 15.14487326   263
2024-205K               
1 61903U 24205K   24318.12847576  .00019000  00000+0  10310-2 0  9996
2 61903  97.4748  30.2753 0012867 280.5604  79.4178 15.14524139   268
2024-205L               
1 61904U 24205L   24318.12840620  .00021478  00000+0  11625-2 0  9992
2 61904  97.4771  30.2758 0013593 280.0405  79.9293 15.14579871   267
